{
  "type": "FeatureCollection",
  "features": [
    {
      "type": "Feature",
      "properties": {
        "norad_id": 66375,
        "name": "STARLINK-35826",
        "group": "last-30-days",
        "lat": 43.192270592230024,
        "lon": 79.30124252161967,
        "alt_km": 338.0146665832308,
        "timestamp": "2025-12-06T20:37:54.811439+00:00",
        "meta_object_name": "STARLINK-35826",
        "meta_object_id": "2025-254AD",
        "meta_epoch": "2025-12-06T04:53:12.723072",
        "meta_mean_motion": 15.74307496,
        "meta_eccentricity": 0.00018055,
        "meta_inclination": 53.1571,
        "meta_ra_of_asc_node": 307.3032,
        "meta_arg_of_pericenter": 100.1258,
        "meta_mean_anomaly": 259.9966,
        "meta_ephemeris_type": 0,
        "meta_classification_type": "U",
        "meta_norad_cat_id": 66375,
        "meta_element_set_no": 999,
        "meta_rev_at_epoch": 465,
        "meta_bstar": 0.0031326618,
        "meta_mean_motion_dot": 0.00488243,
        "meta_mean_motion_ddot": 0,
        "tle_line1": "1 66375U 25254AD  25340.20361948  .00488243  00000+0  31327-2 0  9998",
        "tle_line2": "2 66375  53.1571 307.3032 0001805 100.1258 259.9966 15.74307496  4657"
      },
      "geometry": {
        "type": "Point",
        "coordinates": [
          79.30124252161967,
          43.192270592230024
        ]
      }
    },
    {
      "type": "Feature",
      "properties": {
        "norad_id": 66376,
        "name": "SHIYAN-32 01",
        "group": "last-30-days",
        "lat": 8.585693079147227,
        "lon": -147.42503406136055,
        "alt_km": 429.49924364752405,
        "timestamp": "2025-12-06T20:37:54.811450+00:00",
        "meta_object_name": "SHIYAN-32 01",
        "meta_object_id": "2025-255A",
        "meta_epoch": "2025-12-06T17:28:31.490400",
        "meta_mean_motion": 15.42490212,
        "meta_eccentricity": 0.001346,
        "meta_inclination": 52.9945,
        "meta_ra_of_asc_node": 206.6612,
        "meta_arg_of_pericenter": 23.4542,
        "meta_mean_anomaly": 336.7073,
        "meta_ephemeris_type": 0,
        "meta_classification_type": "U",
        "meta_norad_cat_id": 66376,
        "meta_element_set_no": 999,
        "meta_rev_at_epoch": 442,
        "meta_bstar": 0.00064636,
        "meta_mean_motion_dot": 0.00028217,
        "meta_mean_motion_ddot": 0,
        "tle_line1": "1 66376U 25255A   25340.72814225  .00028217  00000+0  64636-3 0  9999",
        "tle_line2": "2 66376  52.9945 206.6612 0013460  23.4542 336.7073 15.42490212  4420"
      },
      "geometry": {
        "type": "Point",
        "coordinates": [
          -147.42503406136055,
          8.585693079147227
        ]
      }
    },
    {
      "type": "Feature",
      "properties": {
        "norad_id": 66377,
        "name": "CZ-11 DEB",
        "group": "last-30-days",
        "lat": 52.79192806955763,
        "lon": -57.536518518301655,
        "alt_km": 424.5721482615054,
        "timestamp": "2025-12-06T20:37:54.811461+00:00",
        "meta_object_name": "CZ-11 DEB",
        "meta_object_id": "2025-255B",
        "meta_epoch": "2025-12-06T14:00:48.142656",
        "meta_mean_motion": 15.43919275,
        "meta_eccentricity": 0.0013827,
        "meta_inclination": 52.9944,
        "meta_ra_of_asc_node": 207.1849,
        "meta_arg_of_pericenter": 20.1676,
        "meta_mean_anomaly": 339.9872,
        "meta_ephemeris_type": 0,
        "meta_classification_type": "U",
        "meta_norad_cat_id": 66377,
        "meta_element_set_no": 999,
        "meta_rev_at_epoch": 426,
        "meta_bstar": 0.0012842671,
        "meta_mean_motion_dot": 0.00059535,
        "meta_mean_motion_ddot": 0,
        "tle_line1": "1 66377U 25255B   25340.58389054  .00059535  00000+0  12843-2 0  9990",
        "tle_line2": "2 66377  52.9944 207.1849 0013827  20.1676 339.9872 15.43919275  4267"
      },
      "geometry": {
        "type": "Point",
        "coordinates": [
          -57.536518518301655,
          52.79192806955763
        ]
      }
    },
    {
      "type": "Feature",
      "properties": {
        "norad_id": 66378,
        "name": "SHIYAN-32 02",
        "group": "last-30-days",
        "lat": 37.73230810040288,
        "lon": -9.909694672656185,
        "alt_km": 430.86676602613625,
        "timestamp": "2025-12-06T20:37:54.811472+00:00",
        "meta_object_name": "SHIYAN-32 02",
        "meta_object_id": "2025-255C",
        "meta_epoch": "2025-12-06T16:58:00.818688",
        "meta_mean_motion": 15.44584755,
        "meta_eccentricity": 0.0011994,
        "meta_inclination": 52.9924,
        "meta_ra_of_asc_node": 206.5273,
        "meta_arg_of_pericenter": 16.0718,
        "meta_mean_anomaly": 344.0665,
        "meta_ephemeris_type": 0,
        "meta_classification_type": "U",
        "meta_norad_cat_id": 66378,
        "meta_element_set_no": 999,
        "meta_rev_at_epoch": 428,
        "meta_bstar": 0.0015018,
        "meta_mean_motion_dot": 0.00071338,
        "meta_mean_motion_ddot": 0,
        "tle_line1": "1 66378U 25255C   25340.70695392  .00071338  00000+0  15018-2 0  9992",
        "tle_line2": "2 66378  52.9924 206.5273 0011994  16.0718 344.0665 15.44584755  4285"
      },
      "geometry": {
        "type": "Point",
        "coordinates": [
          -9.909694672656185,
          37.73230810040288
        ]
      }
    },
    {
      "type": "Feature",
      "properties": {
        "norad_id": 66379,
        "name": "SHIYAN-32 03",
        "group": "last-30-days",
        "lat": 35.53970059733541,
        "lon": -121.43397068250479,
        "alt_km": 423.4240737748005,
        "timestamp": "2025-12-06T20:37:54.811483+00:00",
        "meta_object_name": "SHIYAN-32 03",
        "meta_object_id": "2025-255D",
        "meta_epoch": "2025-12-06T17:19:17.306976",
        "meta_mean_motion": 15.42818211,
        "meta_eccentricity": 0.0015506,
        "meta_inclination": 52.9952,
        "meta_ra_of_asc_node": 206.6219,
        "meta_arg_of_pericenter": 24.3949,
        "meta_mean_anomaly": 335.7786,
        "meta_ephemeris_type": 0,
        "meta_classification_type": "U",
        "meta_norad_cat_id": 66379,
        "meta_element_set_no": 999,
        "meta_rev_at_epoch": 430,
        "meta_bstar": 0.00055754,
        "meta_mean_motion_dot": 0.00024567,
        "meta_mean_motion_ddot": 0,
        "tle_line1": "1 66379U 25255D   25340.72172809  .00024567  00000+0  55754-3 0  9992",
        "tle_line2": "2 66379  52.9952 206.6219 0015506  24.3949 335.7786 15.42818211  4308"
      },
      "geometry": {
        "type": "Point",
        "coordinates": [
          -121.43397068250479,
          35.53970059733541
        ]
      }
    },
    {
      "type": "Feature",
      "properties": {
        "norad_id": 66380,
        "name": "STARLINK-35139",
        "group": "last-30-days",
        "lat": -36.33146216832982,
        "lon": -101.09881266706542,
        "alt_km": 452.72476699951403,
        "timestamp": "2025-12-06T20:37:54.811494+00:00",
        "meta_object_name": "STARLINK-35139",
        "meta_object_id": "2025-257A",
        "meta_epoch": "2025-12-06T14:36:25.957728",
        "meta_mean_motion": 15.39648227,
        "meta_eccentricity": 0.0002853,
        "meta_inclination": 53.16,
        "meta_ra_of_asc_node": 293.5445,
        "meta_arg_of_pericenter": 92.1489,
        "meta_mean_anomaly": 267.9843,
        "meta_ephemeris_type": 0,
        "meta_classification_type": "U",
        "meta_norad_cat_id": 66380,
        "meta_element_set_no": 999,
        "meta_rev_at_epoch": 536,
        "meta_bstar": 0.0021600826,
        "meta_mean_motion_dot": 0.00087081,
        "meta_mean_motion_ddot": 0,
        "tle_line1": "1 66380U 25257A   25340.60863377  .00087081  00000+0  21601-2 0  9993",
        "tle_line2": "2 66380  53.1600 293.5445 0002853  92.1489 267.9843 15.39648227  5363"
      },
      "geometry": {
        "type": "Point",
        "coordinates": [
          -101.09881266706542,
          -36.33146216832982
        ]
      }
    },
    {
      "type": "Feature",
      "properties": {
        "norad_id": 66381,
        "name": "STARLINK-35158",
        "group": "last-30-days",
        "lat": -35.032607717388665,
        "lon": -99.35260592032964,
        "alt_km": 451.65289447975556,
        "timestamp": "2025-12-06T20:37:54.811506+00:00",
        "meta_object_name": "STARLINK-35158",
        "meta_object_id": "2025-257B",
        "meta_epoch": "2025-12-06T03:41:36.801888",
        "meta_mean_motion": 15.39611903,
        "meta_eccentricity": 0.00011063,
        "meta_inclination": 53.16,
        "meta_ra_of_asc_node": 295.6823,
        "meta_arg_of_pericenter": 95.9912,
        "meta_mean_anomaly": 264.1218,
        "meta_ephemeris_type": 0,
        "meta_classification_type": "U",
        "meta_norad_cat_id": 66381,
        "meta_element_set_no": 999,
        "meta_rev_at_epoch": 535,
        "meta_bstar": 0.002056989,
        "meta_mean_motion_dot": 0.00082754,
        "meta_mean_motion_ddot": 0,
        "tle_line1": "1 66381U 25257B   25340.15389817  .00082754  00000+0  20570-2 0  9992",
        "tle_line2": "2 66381  53.1600 295.6823 0001106  95.9912 264.1218 15.39611903  5354"
      },
      "geometry": {
        "type": "Point",
        "coordinates": [
          -99.35260592032964,
          -35.032607717388665
        ]
      }
    }
  ]
}